OBJECT_NAME,OBJECT_ID,EPOCH,MEAN_MOTION,ECCENTRICITY,INCLINATION,RA_OF_ASC_NODE,ARG_OF_PERICENTER,MEAN_ANOMALY,EPHEMERIS_TYPE,CLASSIFICATION_TYPE,NORAD_CAT_ID,ELEMENT_SET_NO,REV_AT_EPOCH,BSTAR,MEAN_MOTION_DOT,MEAN_MOTION_DDOT
LINGQIAO VIDEO A,2015-057B,2026-06-14T20:32:06.374112,14.77389270,.0015223,97.6613,160.7721,278.8620,81.0867,0,U,40959,999,57506,.55248E-4,.345E-5,0
LINGQIAO VIDEO B,2015-057C,2026-06-14T21:36:16.617312,14.77498417,.0015335,97.6579,161.9787,278.5663,81.3810,0,U,40960,999,57511,.15123E-3,.1032E-4,0
JILIN-1,2015-057D,2026-06-14T20:19:46.303680,14.78156962,.0015312,97.6507,165.3299,271.4015,88.5443,0,U,40961,999,57526,.10571E-3,.718E-5,0
FOX-1A (AO-85),2015-058D,2026-06-14T16:04:10.530048,14.90959259,.0130289,64.7762,286.8077,57.5807,303.7830,0,U,40967,999,11319,.21146E-3,.2284E-4,0
SINOD-D 1,2015-058E,2026-06-14T14:30:47.774304,14.95891927,.011888,64.7761,266.9995,54.1051,307.1029,0,U,40968,999,11627,.25974E-3,.3177E-4,0
ELEKTRO-L 2,2015-074A,2026-06-14T01:03:32.621184,1.00270718,.00007046,6.6845,70.5612,243.9352,309.2359,0,U,41105,999,3847,0,-.114E-5,0
DAMPE,2015-078A,2026-06-14T19:33:49.502592,15.30779099,.0013831,97.4552,171.2701,84.7377,275.5442,0,U,41173,999,58418,.36656E-4,.1015E-4,0
ORBCOMM FM110,2015-081D,2026-06-14T07:06:13.757184,14.58876713,.00025892,47.0033,15.1133,58.4001,301.7137,0,U,41182,999,55720,.17013526E-3,.633E-5,0
ORBCOMM FM112,2015-081F,2026-06-14T14:36:39.996000,14.58900840,.0003589,46.9997,282.4402,206.9755,153.0944,0,U,41184,999,55857,.14973E-3,.537E-5,0
ORBCOMM FM113,2015-081G,2026-06-14T14:02:53.344032,14.58856169,.0002139,47.0013,282.9257,214.6325,145.4422,0,U,41185,999,55855,.10887E-3,.343E-5,0
ORBCOMM FM108,2015-081J,2026-06-14T13:08:46.171104,14.58867428,.0002809,47.0035,194.6770,212.6751,147.3961,0,U,41187,999,55969,.10032E-3,.303E-5,0
ORBCOMM FM117,2015-081K,2026-06-14T18:53:34.721088,14.58863849,.0003366,46.9995,192.1789,215.0215,145.0450,0,U,41188,999,55977,.95337E-4,.279E-5,0
ORBCOMM FM116,2015-081L,2026-06-14T15:08:13.719840,14.58879865,.0000676,47.0030,282.7098,42.8537,317.2401,0,U,41189,999,55856,.15661E-3,.57E-5,0
HORYU-4,2016-012D,2026-06-14T11:54:51.309216,15.93820636,.00047162,30.9847,98.7619,253.7574,106.2569,0,U,41340,999,57038,.10359447E-2,.399139E-2,.5627425E-4
ZIYUAN 3-02 (ZY 3-02),2016-033A,2026-06-14T21:18:27.533952,15.21462495,.0011238,97.3841,241.7064,298.9609,61.0500,0,U,41556,999,55763,.23591E-3,.5241E-4,0
CARTOSAT-2C,2016-040A,2026-06-14T21:17:13.076160,15.19303316,.0010418,97.4489,225.8966,138.3225,221.8805,0,U,41599,999,55336,.2277E-3,.4744E-4,0
LAPAN-A3,2016-040E,2026-06-14T20:11:40.873920,15.33091095,.0011175,97.1485,162.0642,33.6059,326.5890,0,U,41603,999,55445,.10136E-3,.317E-4,0
GAOFEN-3,2016-049A,2026-06-14T20:43:59.204352,14.42214808,.0001347,98.4006,173.6846,100.8071,259.3270,0,U,41727,999,51831,-.1873E-4,-.105E-5,0
CAS-2T & KS-1Q,2016-066G,2026-06-14T11:17:02.990400,14.44686169,.03427141,98.3821,241.2375,137.6929,225.1249,0,U,41847,999,50440,.23210323E-3,.1606E-4,0
YUNHAI-1 01,2016-068A,2026-06-14T20:40:52.837824,14.32704095,.000626,98.5827,176.8901,49.2389,310.9337,0,U,41857,999,50149,.12633E-3,.3E-5,0
RESOURCESAT-2A,2016-074A,2026-06-14T19:38:44.376288,14.21616476,.0003334,98.7533,239.3420,88.1141,272.0418,0,U,41877,999,49396,.17272E-3,.335E-5,0
TANSAT,2016-081A,2026-06-14T20:23:37.802112,14.59949536,.0019698,98.5357,166.0379,319.8272,40.1470,0,U,41898,999,50428,.83544E-4,.351E-5,0
JILIN-1 03,2017-002B,2026-06-14T19:39:06.887808,15.41526549,.0006509,97.1939,172.9366,161.6893,198.4590,0,U,41914,999,52149,.29292E-3,.12221E-3,0
CARTOSAT-2D,2017-008A,2026-06-14T20:28:39.943776,15.19316587,.0003746,97.4111,225.2027,239.8701,120.2163,0,U,41948,999,51722,.17146E-3,.3553E-4,0
